TRANSPORTER-10 OBJECT AD
1 59125U 24043AD  26068.86032889  .00011954  00000+0  36311-3 0  9997
2 59125  97.5470 207.3753 0008984 221.4908 138.5653 15.34189901112026
STARLINK-31586          
1 59205U 24046E   26068.51876872  .00000697  00000+0  35675-4 0  9994
2 59205  53.1600 156.1146 0000993  99.6292 260.4821 15.30192497113021
